#dP2021  5 27  0  0  0.00000000      96 __u+U ITR00 FIT  IAC
## 2159 345600.00000000   900.00000000 59361 0.0000000000000
+  116   C06C07C08C09C10C11C12C13C14C16C19C20C21C22C23C24C25
+        C26C27C28C29C30C32C33C34C35C36C37C38C39C40C41C42C43
+        C44C45C46E01E02E03E04E05E07E08E09E11E12E13E14E15E18
+        E19E21E24E25E26E27E30E31E33E36G01G02G03G04G05G06G07
+        G08G09G10G12G13G14G15G16G17G18G19G20G21G22G23G24G25
+        G26G27G28G29G30G31G32J01J02J03R01R02R03R04R05R07R08
+        R09R11R12R13R14R15R16R17R18R19R20R21R22R24  0  0  0
++         8  8  8  8  7  8  8  8  8  8  7  7  8  6  7  7  6
++         6  7  8  7  8  7  8  6  6  6  6  9  8  9  5  8  9
++         7  8  7  7  7  7  6  6  7  6  7  6 10  8  6  7  6
++         5  8  7  6  9  6  6  7  8  7  6  7  5  6  6  5  7
++         7  6  6  5  7  6  5  7  6  6  8  5  6  6  7  6  7
++         5  6  6  6  7  7  7  8  8  7  6  6  7  6  6  8  7
++        10  5  7  6  5  6  5  6  7  7  8  6  6  7  0  0  0
%c M  cc GPS ccc cccc cccc cccc cccc ccccc ccccc ccccc ccccc
%c cc cc ccc ccc cccc cccc cccc cccc ccccc ccccc ccccc ccccc
%f  0.0000000  0.000000000  0.00000000000  0.000000000000000
%f  0.0000000  0.000000000  0.00000000000  0.000000000000000
%i    0    0    0    0      0      0      0      0         0
%i    0    0    0    0      0      0      0      0         0
/* INFORMATION & ANALYSIS CENTER (IAC)      ULTRA-RAPID DATA
/* S/V CLOCKS ARE ALIGNED TO GNSS TIME                      
/* G:C1WC2W R:C1PC2P E:C1XC5X C:C2IC6I J:C1CC2S             
/* PCV:IGS14_2148 OL/AL:FES2004  NONE     YN ORB:CoN CLK:CoN
*  2021 05 27  2 30  0.00000000
PC06  -8900.220151  34143.154790 -22234.872647    431.056426
PC07 -16682.570011  22673.484831  31543.274561    138.613058
PC08 -24564.738348  32707.020670 -10903.545255   -891.241073
PC09    753.581410  40892.560717  -8943.494280    494.027437
PC10    720.066986  27064.920633  32584.385956    -37.499158
PC11  -2566.043734  26614.669802   8111.096729    364.166274
PC12 -12388.154156  13505.248215  21076.788636    867.558228
PC13 -13823.730811  33553.544753 -21579.406961    276.383423
PC14  -2374.985443  16071.867983 -22664.837458    841.294673
PC16  -6369.974164  36060.907440 -20576.642332   -861.275366
PC19  -8455.066647 -18074.933750  19529.661058    849.769341
PC20  11170.331620 -12222.327595  22488.691966   -900.196828
PC21 -25084.684488  -1296.771012 -12106.894424   -938.328571
PC22 -23774.920028 -13656.706186   5108.893747   -953.496575
PC23  15582.388542   7784.350050  21809.503442   -917.613388
PC24 -19062.580496  19551.707127   5801.617380   -866.786780
PC25  -1340.621255  19339.589983  20076.441390   -910.794115
PC26 -24061.665701   9552.948346 -10467.387065    901.406669
PC27  15611.697323  -3023.578763 -22955.128128    538.268435
PC28  13714.458777  17476.778020 -16893.113246    -69.635254
PC29  -4822.573306 -27472.780971    928.625603    397.758248
PC30   7859.201749 -21574.844033 -15884.222518    468.474109
PC32  25122.409659   1082.936672  12137.381907   -929.412018
PC33   8530.948312  18040.484997 -19504.069960   -936.875017
PC34  -7493.855851  22065.986427  15319.589919   -664.343610
PC35 -14243.058059 -17335.791072  16606.451081   -262.025482
PC36   2163.451676 -19422.615717 -19895.351238   -726.379551
PC37  24171.142206  -8239.515707  11254.230725   -885.242952
PC38 -20095.725444  34139.281135 -14606.848928    151.345519
PC39  -2465.163238  37414.085575 -19107.615974     31.376488
PC40  -5954.875439  21644.637491  35712.733940    164.946364
PC41  23714.137977  13696.309654  -5311.918745   -944.720348
PC42 -11885.202123  11842.911340 -22247.081342 999999.999999
PC43   4375.978074  27543.915123   -453.069387   -748.498505
PC44 -15662.232358   3273.396347  22849.338552    208.352636
PC45 -15632.897676  -7544.028870 -21848.182086    450.873413
PC46  18371.923007 -19861.591843  -6761.732452    252.538313
PE01  -4221.482846  17018.543534  23848.255746  -1116.284379
PE02   4058.055584 -17012.219678 -23880.501430    221.856112
PE03  -5003.780266 -24091.976462  16447.430136   -435.285464
PE04  19384.386778  22362.776259    666.315562   -779.436751
PE05  12521.829550 -11696.664436  24144.257035   -277.799015
PE07 -22550.106283  -7381.094190 -17677.423269   -542.512297
PE08 -19631.408189 -22122.182408   -958.945932   5995.741253
PE09  22486.841404   7180.490225  17879.348083   5654.304041
PE11  17463.800443  -2784.486109 -23752.365116   5929.903428
PE12   8357.305298  18498.048567 -21540.743177   5190.684858
PE13 -17279.700278   2353.138069  23914.998479    416.936916
PE14  -9737.214775  13343.574952  17639.321779  -1444.924146
PE15  -8363.906695 -18444.280931  21592.571052    812.126883
PE18  17647.179064 -10357.325635 -24665.086476  -1581.999041
PE19   3052.453133  23274.328605 -18020.516299    286.937978
PE21 -22911.025782  13156.330761  13346.773759   -667.186183
PE24  28953.546015   -801.932787   6038.648091   -921.744346
PE25  23056.274349 -13066.762506 -13178.450255   -535.052096
PE26 -15902.464651  22219.083218  11380.724257   1764.226493
PE27 -29090.142302   1501.777196  -5280.065720    -41.053672
PE30 -17192.998340 -11577.308978 -21145.171027   2913.057881
PE31  18121.208326  10963.156101  20685.319137   -481.572162
PE33  -5454.288157  28336.330692  -6567.727556   -469.045028
PE36  16009.356476 -21739.675009 -12149.591036   -212.573481
PG01 -14005.605062  22331.003093    414.183885    677.260769
PG02  17315.605323  -5378.481484 -18776.736364   -607.522596
PG03 -13937.536136  12659.468996 -18770.252377   -175.000610
PG04  -5354.546147  18130.702447 -18624.787325   -197.806963
PG05  24993.108655  -5618.367677   7221.126776    -43.129591
PG06  12499.509737   7693.461634 -22079.949108     19.920533
PG07  -3662.030342  23082.203580  12489.022629    161.971721
PG08 -12030.406068   9207.015465  21787.627533    -22.757439
PG09   4694.268511  23726.121602 -11010.937228   -347.839274
PG10 -16962.795623 -11840.225732  16926.717761   -130.044776
PG12  16375.801511 -10883.092637 -18042.936007    -46.577098
PG13  15833.087693    315.860251  21211.407248    137.077640
PG14  16076.481992  12825.895885  16817.134620     79.887799
PG15  11395.870686 -10986.734645  20941.681304   -146.626860
PG16 -26586.371199   -673.621236   3142.180639   -331.571580
PG17  13243.063191  22740.140720  -3152.108805    448.783195
PG18   1638.860139 -21873.236710  14918.702558    349.209837
PG19  16301.958263  17270.052217 -12301.950588      5.315902
PG20  20947.843802 -11225.301967  11485.966707    521.781939
PG21 -16764.792703  18195.787217   9661.852757    120.913870
PG22 -21909.858411   9894.388482 -10883.710058   -604.144529
PG23  -4974.954526 -14830.305820  21451.179632    103.101794
PG24  15274.426053 -20594.606054   5834.709198    100.906848
PG25   2885.331306 -15205.867461 -21829.045230    144.654645
PG26 -25450.690418  -4290.874737  -6899.158472     90.529769
PG27 -17172.351330  -3062.082402  19960.774889   -136.926827
PG28  20537.981494  11152.195715  12989.387777    564.782721
PG29  -2635.079272 -23804.829232 -11478.366839   -353.878100
PG30   7215.496969  15985.835554  19944.351030   -431.268104
PG31 -14967.500404  -4781.685279 -21543.879582   -119.574833
PG32 -16039.738401 -20543.669498  -5453.835795     20.337310
PJ01 -25815.317373  15482.889367 -24920.738684   -385.241114
PJ02 -30364.812189  26377.666612  17422.290259     -0.028364
PJ03 -26630.521969  25930.296992  24926.825707     -6.444377
PR01  17062.483997  16239.800193  -9803.523926     80.020212
PR02  21567.413525   8107.763397  10927.958447    480.140324
PR03  12096.405826  -4609.768250  22017.869506     36.643416
PR04  -4113.461713 -14345.332659  20720.399366     88.569203
PR05 -17983.990182 -16313.803773   7866.142528     72.473366
PR07 -11625.789103   4962.602609 -22119.908951    -42.423222
PR08   4168.051716  14429.614002 -20551.750242    -59.207551
PR09 -21800.771249   4532.430263 -12360.277412     -5.128685
PR11  -8619.048860  14664.779077  19013.444849     -6.985370
PR12   9532.314302   7188.047118  22565.395133    232.188262
PR13  21518.427583  -4283.016717  12998.108480    -55.321549
PR14  21124.128602 -13461.133012  -4856.962517     64.686543
PR15   8340.597451 -14528.575799 -19217.032992    103.607075
PR16 -10859.035285  -6396.343854 -22218.694991    -15.577457
PR17   9012.444858 -16023.747356 -17662.943281    427.461417
PR18   2887.697460 -25229.233167  -2698.981894     77.916960
PR19  -3830.628328 -21601.203507  13008.686232   -145.318795
PR20 -10029.788384  -3392.762972  23210.383090    -49.817536
PR21  -8693.755749  17088.110770  16831.792776   -211.958198
PR22  -2533.104741  25277.046053   1609.377220   -114.672746
PR24  10640.385552   2435.263533 -23044.296766     44.196055
EOF
